[{"OBJECT_NAME":"STARLINK-2543","OBJECT_ID":"2021-036C","EPOCH":"2026-03-09T06:51:55.231488","MEAN_MOTION":15.30234914,"ECCENTRICITY":0.00014043,"INCLINATION":53.1607,"RA_OF_ASC_NODE":26.2778,"ARG_OF_PERICENTER":110.4197,"MEAN_ANOMALY":249.6954,"EPHEMERIS_TYPE":0,"CLASSIFICATION_TYPE":"U","NORAD_CAT_ID":48278,"ELEMENT_SET_NO":999,"REV_AT_EPOCH":26905,"BSTAR":0.00047597044,"MEAN_MOTION_DOT":0.00013779,"MEAN_MOTION_DDOT":0},{"OBJECT_NAME":"NUSAT-41 (C PAYNE-G)","OBJECT_ID":"2023-084N","EPOCH":"2026-03-09T21:55:54.837696","MEAN_MOTION":15.29680045,"ECCENTRICITY":0.00062175,"INCLINATION":97.5351,"RA_OF_ASC_NODE":204.1011,"ARG_OF_PERICENTER":322.2064,"MEAN_ANOMALY":37.8738,"EPHEMERIS_TYPE":0,"CLASSIFICATION_TYPE":"U","NORAD_CAT_ID":56944,"ELEMENT_SET_NO":999,"REV_AT_EPOCH":15260,"BSTAR":0.00059912824,"MEAN_MOTION_DOT":0.0001718,"MEAN_MOTION_DDOT":0}]
